start=new Date('2022-11-07T00:00:00.000Z').valueOf();
sats=[{"MEAN_ANOMALY":"284.1678","COUNTRY_CODE":"US","REF_FRAME":"TEME","TLE_LINE1":"1 48602U 21041BB  22310.86711413 -.00000035  00000-0  16559-4 0  9996","FILE":"3647254","OBJECT_NAME":"STARLINK-2713","MEAN_MOTION_DDOT":"0.0000000000000","SEMIMAJOR_AXIS":"6925.377","BSTAR":"0.00001655900000","REV_AT_EPOCH":"8297","OBJECT_ID":"2021-041BB","CENTER_NAME":"EARTH","MEAN_MOTION":"15.06390666","GP_ID":"217064508","MEAN_ELEMENT_THEORY":"SGP4","CLASSIFICATION_TYPE":"U","ARG_OF_PERICENTER":"75.9468","PERIAPSIS":"546.269","SITE":"AFETR","INCLINATION":"53.0548","EPHEMERIS_TYPE":"0","MEAN_MOTION_DOT":"-0.00000035","DECAY_DATE":null,"TIME_SYSTEM":"UTC","APOAPSIS":"548.215","TLE_LINE2":"2 48602  53.0548 188.1309 0001405  75.9468 284.1678 15.06390666 82970","RA_OF_ASC_NODE":"188.1309","LAUNCH_DATE":"2021-05-15","ECCENTRICITY":"0.00014050","NORAD_CAT_ID":"48602","ELEMENT_SET_NO":"999","OBJECT_TYPE":"PAYLOAD","EPOCH":"2022-11-06T20:48:38.660832","PERIOD":"95.593","RCS_SIZE":"LARGE"},{"COUNTRY_CODE":"US","MEAN_ANOMALY":"293.4493","OBJECT_NAME":"STARLINK-2714","TLE_LINE1":"1 48603U 21041BC  22310.91272015  .00002905  00000-0  21395-3 0  9993","FILE":"3647254","REF_FRAME":"TEME","CENTER_NAME":"EARTH","OBJECT_ID":"2021-041BC","BSTAR":"0.00021395000000","REV_AT_EPOCH":"8305","MEAN_MOTION_DDOT":"0.0000000000000","SEMIMAJOR_AXIS":"6925.409","GP_ID":"217064329","MEAN_MOTION":"15.06380342","PERIAPSIS":"546.227","ARG_OF_PERICENTER":"66.6655","CLASSIFICATION_TYPE":"U","MEAN_ELEMENT_THEORY":"SGP4","DECAY_DATE":null,"MEAN_MOTION_DOT":"0.00002905","EPHEMERIS_TYPE":"0","INCLINATION":"53.0538","SITE":"AFETR","LAUNCH_DATE":"2021-05-15","RA_OF_ASC_NODE":"182.9157","TLE_LINE2":"2 48603  53.0538 182.9157 0001512  66.6655 293.4493 15.06380342 83055","APOAPSIS":"548.321","TIME_SYSTEM":"UTC","RCS_SIZE":"LARGE","PERIOD":"95.593","EPOCH":"2022-11-06T21:54:19.020960","OBJECT_TYPE":"PAYLOAD","ELEMENT_SET_NO":"999","NORAD_CAT_ID":"48603","ECCENTRICITY":"0.00015120"},{"RCS_SIZE":"LARGE","PERIOD":"95.594","EPOCH":"2022-11-06T10:48:13.572576","OBJECT_TYPE":"PAYLOAD","NORAD_CAT_ID":"48604","ELEMENT_SET_NO":"999","ECCENTRICITY":"0.00018360","LAUNCH_DATE":"2021-05-15","TLE_LINE2":"2 48604  53.0552 215.0068 0001836  52.0252 308.0903 15.06372733 82561","RA_OF_ASC_NODE":"215.0068","APOAPSIS":"548.569","TIME_SYSTEM":"UTC","DECAY_DATE":null,"MEAN_MOTION_DOT":"-0.00000951","INCLINATION":"53.0552","EPHEMERIS_TYPE":"0","SITE":"AFETR","PERIAPSIS":"546.026","CLASSIFICATION_TYPE":"U","ARG_OF_PERICENTER":"52.0252","MEAN_ELEMENT_THEORY":"SGP4","MEAN_MOTION":"15.06372733","GP_ID":"217056273","CENTER_NAME":"EARTH","REV_AT_EPOCH":"8256","BSTAR":"-0.00004499100000","OBJECT_ID":"2021-041BD","MEAN_MOTION_DDOT":"0.0000000000000","SEMIMAJOR_AXIS":"6925.432","OBJECT_NAME":"STARLINK-2757","FILE":"3647066","TLE_LINE1":"1 48604U 21041BD  22310.45015709 -.00000951  00000-0 -44991-4 0  9997","REF_FRAME":"TEME","COUNTRY_CODE":"US","MEAN_ANOMALY":"308.0903"},{"PERIOD":"95.594","EPOCH":"2022-11-06T01:40:48.618624","RCS_SIZE":"LARGE","NORAD_CAT_ID":"48638","ECCENTRICITY":"0.00015480","ELEMENT_SET_NO":"999","OBJECT_TYPE":"PAYLOAD","TLE_LINE2":"2 48638  53.0542 191.7143 0001548  84.1697 275.9469 15.06373019 79956","RA_OF_ASC_NODE":"191.7143","LAUNCH_DATE":"2021-05-26","TIME_SYSTEM":"UTC","APOAPSIS":"548.368","MEAN_MOTION_DOT":"-0.00005488","DECAY_DATE":null,"SITE":"AFETR","INCLINATION":"53.0542","EPHEMERIS_TYPE":"0","CLASSIFICATION_TYPE":"U","ARG_OF_PERICENTER":"84.1697","PERIAPSIS":"546.224","MEAN_ELEMENT_THEORY":"SGP4","MEAN_MOTION":"15.06373019","GP_ID":"217056277","REV_AT_EPOCH":"7995","BSTAR":"-0.00035006000000","OBJECT_ID":"2021-044A","CENTER_NAME":"EARTH","MEAN_MOTION_DDOT":"0.0000000000000","SEMIMAJOR_AXIS":"6925.431","OBJECT_NAME":"STARLINK-2758","REF_FRAME":"TEME","TLE_LINE1":"1 48638U 21044A   22310.07000716 -.00005488  00000-0 -35006-3 0  9993","FILE":"3647066","COUNTRY_CODE":"US","MEAN_ANOMALY":"275.9469"},{"ECCENTRICITY":"0.00015370","NORAD_CAT_ID":"48639","ELEMENT_SET_NO":"999","OBJECT_TYPE":"PAYLOAD","PERIOD":"95.593","EPOCH":"2022-11-06T22:01:36.154848","RCS_SIZE":"LARGE","TIME_SYSTEM":"UTC","APOAPSIS":"548.321","TLE_LINE2":"2 48639  53.0530 187.9137 0001537  68.0461 292.0691 15.06385940 80980","RA_OF_ASC_NODE":"187.9137","LAUNCH_DATE":"2021-05-26","SITE":"AFETR","INCLINATION":"53.0530","EPHEMERIS_TYPE":"0","MEAN_MOTION_DOT":"0.00001709","DECAY_DATE":null,"MEAN_ELEMENT_THEORY":"SGP4","CLASSIFICATION_TYPE":"U","ARG_OF_PERICENTER":"68.0461","PERIAPSIS":"546.192","MEAN_MOTION":"15.06385940","GP_ID":"217064843","MEAN_MOTION_DDOT":"0.0000000000000","SEMIMAJOR_AXIS":"6925.392","BSTAR":"0.00013362000000","REV_AT_EPOCH":"8098","OBJECT_ID":"2021-044B","CENTER_NAME":"EARTH","FILE":"3647274","TLE_LINE1":"1 48639U 21044B   22310.91777957  .00001709  00000-0  13362-3 0  9996","REF_FRAME":"TEME","OBJECT_NAME":"STARLINK-2739","MEAN_ANOMALY":"292.0691","COUNTRY_CODE":"US"},{"TLE_LINE1":"1 48640U 21044C   22310.04887032  .00000010  00000-0  19608-4 0  9992","FILE":"3647066","REF_FRAME":"TEME","OBJECT_NAME":"STARLINK-2736","MEAN_ANOMALY":"287.9453","COUNTRY_CODE":"US","GP_ID":"217055276","MEAN_MOTION":"15.06386412","SEMIMAJOR_AXIS":"6925.390","MEAN_MOTION_DDOT":"0.0000000000000","CENTER_NAME":"EARTH","OBJECT_ID":"2021-044C","BSTAR":"0.00001960800000","REV_AT_EPOCH":"7994","EPHEMERIS_TYPE":"0","INCLINATION":"53.0546","SITE":"AFETR","DECAY_DATE":null,"MEAN_MOTION_DOT":"0.00000010","MEAN_ELEMENT_THEORY":"SGP4","PERIAPSIS":"546.186","ARG_OF_PERICENTER":"72.1704","CLASSIFICATION_TYPE":"U","OBJECT_TYPE":"PAYLOAD","ECCENTRICITY":"0.00015440","NORAD_CAT_ID":"48640","ELEMENT_SET_NO":"999","RCS_SIZE":"LARGE","PERIOD":"95.593","EPOCH":"2022-11-06T01:10:22.395648","APOAPSIS":"548.324","TIME_SYSTEM":"UTC","LAUNCH_DATE":"2021-05-26","RA_OF_ASC_NODE":"192.0918","TLE_LINE2":"2 48640  53.0546 192.0918 0001544  72.1704 287.9453 15.06386412 79945"},{"COUNTRY_CODE":"US","MEAN_ANOMALY":"286.3047","OBJECT_NAME":"STARLINK-2754","FILE":"3647066","TLE_LINE1":"1 48641U 21044D   22310.06128704 -.00003557  00000-0 -22009-3 0  9998","REF_FRAME":"TEME","REV_AT_EPOCH":"7988","BSTAR":"-0.00022009000000","OBJECT_ID":"2021-044D","CENTER_NAME":"EARTH","MEAN_MOTION_DDOT":"0.0000000000000","SEMIMAJOR_AXIS":"6925.409","MEAN_MOTION":"15.06380152","GP_ID":"217055526","CLASSIFICATION_TYPE":"U","ARG_OF_PERICENTER":"73.8138","PERIAPSIS":"546.038","MEAN_ELEMENT_THEORY":"SGP4","MEAN_MOTION_DOT":"-0.00003557","DECAY_DATE":null,"SITE":"AFETR","INCLINATION":"53.0544","EPHEMERIS_TYPE":"0","TLE_LINE2":"2 48641  53.0544 196.7454 0001785  73.8138 286.3047 15.06380152 79886","RA_OF_ASC_NODE":"196.7454","LAUNCH_DATE":"2021-05-26","TIME_SYSTEM":"UTC","APOAPSIS":"548.511","PERIOD":"95.593","EPOCH":"2022-11-06T01:28:15.200256","RCS_SIZE":"LARGE","NORAD_CAT_ID":"48641","ELEMENT_SET_NO":"999","ECCENTRICITY":"0.00017850","OBJECT_TYPE":"PAYLOAD"},{"MEAN_MOTION_DDOT":"0.0000000000000","SEMIMAJOR_AXIS":"6925.369","OBJECT_ID":"2021-044E","BSTAR":"-0.00009828300000","REV_AT_EPOCH":"7993","CENTER_NAME":"EARTH","GP_ID":"217055778","MEAN_MOTION":"15.06393250","MEAN_ANOMALY":"273.9967","COUNTRY_CODE":"US","REF_FRAME":"TEME","TLE_LINE1":"1 48642U 21044E   22310.40680624 -.00001745  00000-0 -98283-4 0  9996","FILE":"3647066","OBJECT_NAME":"STARLINK-2646","TIME_SYSTEM":"UTC","APOAPSIS":"548.226","RA_OF_ASC_NODE":"195.1786","TLE_LINE2":"2 48642  53.0538 195.1786 0001432  86.1186 273.9967 15.06393250 79932","LAUNCH_DATE":"2021-05-26","ELEMENT_SET_NO":"999","ECCENTRICITY":"0.00014320","NORAD_CAT_ID":"48642","OBJECT_TYPE":"PAYLOAD","PERIOD":"95.593","EPOCH":"2022-11-06T09:45:48.059136","RCS_SIZE":"LARGE","MEAN_ELEMENT_THEORY":"SGP4","ARG_OF_PERICENTER":"86.1186","CLASSIFICATION_TYPE":"U","PERIAPSIS":"546.243","SITE":"AFETR","EPHEMERIS_TYPE":"0","INCLINATION":"53.0538","MEAN_MOTION_DOT":"-0.00001745","DECAY_DATE":null},{"EPHEMERIS_TYPE":"0","INCLINATION":"53.0532","SITE":"AFETR","DECAY_DATE":null,"MEAN_MOTION_DOT":"0.00005174","MEAN_ELEMENT_THEORY":"SGP4","PERIAPSIS":"546.127","ARG_OF_PERICENTER":"73.3149","CLASSIFICATION_TYPE":"U","OBJECT_TYPE":"PAYLOAD","NORAD_CAT_ID":"48643","ECCENTRICITY":"0.00017140","ELEMENT_SET_NO":"999","RCS_SIZE":"LARGE","PERIOD":"95.594","EPOCH":"2022-11-05T23:46:01.965792","APOAPSIS":"548.501","TIME_SYSTEM":"UTC","LAUNCH_DATE":"2021-05-26","RA_OF_ASC_NODE":"197.0622","TLE_LINE2":"2 48643  53.0532 197.0622 0001714  73.3149 286.8028 15.06367329 79879","TLE_LINE1":"1 48643U 21044F   22309.99030053  .00005174  00000-0  36633-3 0  9992","REF_FRAME":"TEME","FILE":"3647066","OBJECT_NAME":"STARLINK-2704","MEAN_ANOMALY":"286.8028","COUNTRY_CODE":"US","GP_ID":"217056029","MEAN_MOTION":"15.06367329","SEMIMAJOR_AXIS":"6925.449","MEAN_MOTION_DDOT":"0.0000000000000","CENTER_NAME":"EARTH","OBJECT_ID":"2021-044F","BSTAR":"0.00036633000000","REV_AT_EPOCH":"7987"},{"MEAN_ANOMALY":"290.6190","COUNTRY_CODE":"US","TLE_LINE1":"1 48644U 21044G   22310.05391411 -.00004663  00000-0 -29443-3 0  9995","REF_FRAME":"TEME","FILE":"3647066","OBJECT_NAME":"STARLINK-2695","MEAN_MOTION_DDOT":"0.0000000000000","SEMIMAJOR_AXIS":"6925.390","CENTER_NAME":"EARTH","OBJECT_ID":"2021-044G","REV_AT_EPOCH":"7988","BSTAR":"-0.00029443000000","GP_ID":"217054777","MEAN_MOTION":"15.06386388","MEAN_ELEMENT_THEORY":"SGP4","PERIAPSIS":"546.209","ARG_OF_PERICENTER":"69.4961","CLASSIFICATION_TYPE":"U","EPHEMERIS_TYPE":"0","INCLINATION":"53.0535","SITE":"AFETR","DECAY_DATE":null,"MEAN_MOTION_DOT":"-0.00004663","APOAPSIS":"548.302","TIME_SYSTEM":"UTC","LAUNCH_DATE":"2021-05-26","RA_OF_ASC_NODE":"196.7845","TLE_LINE2":"2 48644  53.0535 196.7845 0001511  69.4961 290.6190 15.06386388 79889","OBJECT_TYPE":"PAYLOAD","NORAD_CAT_ID":"48644","ECCENTRICITY":"0.00015110","ELEMENT_SET_NO":"999","RCS_SIZE":"LARGE","PERIOD":"95.593","EPOCH":"2022-11-06T01:17:38.179104"}];
